IRIDIUM 39              
1 25042U 97069D   26011.83657685  .00000675  00000+0  17040-3 0  9994
2 25042  86.3933 121.7259 0016545 335.3772  24.6640 14.49560741479187
IRIDIUM 38              
1 25043U 97069E   26011.89252434  .00000519  00000+0  16413-3 0  9994
2 25043  86.3994 145.4308 0003731 113.7668 246.3922 14.38351332475957
IRIDIUM 42              
1 25077U 97077A   26011.87745161  .00000458  00000+0  14936-3 0  9992
2 25077  86.4001 151.8631 0002494 109.8027 250.3440 14.36565139471152
IRIDIUM 44              
1 25078U 97077B   26011.82387185  .00000387  00000+0  11562-3 0  9999
2 25078  86.3991 133.2623 0003774  79.3392 280.8232 14.40462885473735
IRIDIUM 45              
1 25104U 97082A   26011.84591452  .00024590  00000+0  66440-3 0  9998
2 25104  86.3548 305.8195 0090546 264.3478  94.7442 15.33455681483889
IRIDIUM 24              
1 25105U 97082B   26011.94192300  .00000512  00000+0  14889-3 0  9997
2 25105  86.3921 351.7350 0013454 105.0127 255.2564 14.42364799473306
IRIDIUM 51              
1 25262U 98018A   26011.88054477  .00153119  00000+0  11946-2 0  9998
2 25262  86.3709 310.6868 0047358 147.2875 213.1344 15.69697240479361
IRIDIUM 57              
1 25273U 98019B   26011.87340956  .00000326  00000+0  10534-3 0  9994
2 25273  86.3929  57.7462 0002323  93.6887 266.4576 14.36077045454736
